{
    "links": {
        "self": "http://www.neowsapp.com/rest/v1/neo/3892651?api_key=iIulBulltgU6a56xZRHN4H3l9WmuAYTsLGpBGhQ2"
    },
    "id": "3892651",
    "neo_reference_id": "3892651",
    "name": "(2019 VZ1)",
    "designation": "2019 VZ1",
    "nasa_jpl_url": "http://ssd.jpl.nasa.gov/sbdb.cgi?sstr=3892651",
    "absolute_magnitude_h": 23.4,
    "estimated_diameter": {
        "kilometers": {
            "estimated_diameter_min": 0.0555334912,
            "estimated_diameter_max": 0.1241766613
        },
        "meters": {
            "estimated_diameter_min": 55.5334911581,
            "estimated_diameter_max": 124.1766612574
        },
        "miles": {
            "estimated_diameter_min": 0.0345069009,
            "estimated_diameter_max": 0.0771597762
        },
        "feet": {
            "estimated_diameter_min": 182.1964991311,
            "estimated_diameter_max": 407.4037573197
        }
    },
    "is_potentially_hazardous_asteroid": false,
    "close_approach_data": [
        {
            "close_approach_date": "2019-11-02",
            "close_approach_date_full": "2019-Nov-02 16:42",
            "epoch_date_close_approach": 1572712920000,
            "relative_velocity": {
                "kilometers_per_second": "24.7238898999",
                "kilometers_per_hour": "89006.0036397462",
                "miles_per_hour": "55304.8693171523"
            },
            "miss_distance": {
                "astronomical": "0.0931518495",
                "lunar": "36.2360694555",
                "kilometers": "13935318.271760565",
                "miles": "8659005.250663197"
            },
            "orbiting_body": "Earth"
        }
    ],
    "orbital_data": {
        "orbit_id": "2",
        "orbit_determination_date": "2019-11-17 04:52:45",
        "first_observation_date": "2019-11-03",
        "last_observation_date": "2019-11-17",
        "data_arc_in_days": 14,
        "observations_used": 26,
        "orbit_uncertainty": "9",
        "minimum_orbit_intersection": ".084701",
        "jupiter_tisserand_invariant": "3.933",
        "epoch_osculation": "2458792.5",
        "eccentricity": ".6672170049231848",
        "semi_major_axis": "1.62034944461433",
        "inclination": "29.68569490736676",
        "ascending_node_longitude": "48.45091017675587",
        "orbital_period": "753.3754324674876",
        "perihelion_distance": ".5392247412498109",
        "perihelion_argument": "250.2893166341334",
        "aphelion_distance": "2.70147414797885",
        "perihelion_time": "2458736.872331673710",
        "mean_anomaly": "26.58164805278361",
        "mean_motion": ".4778494021512124",
        "equinox": "J2000",
        "orbit_class": {
            "orbit_class_type": "APO",
            "orbit_class_description": "Near-Earth asteroid orbits which cross the Earth’s orbit similar to that of 1862 Apollo",
            "orbit_class_range": "a (semi-major axis) > 1.0 AU; q (perihelion) < 1.017 AU"
        }
    },
    "is_sentry_object": false
}